{
  "type": "FeatureCollection",
  "features": [
    {
      "type": "Feature",
      "properties": {
        "norad_id": 38867,
        "name": "INTELSAT 23 (IS-23)",
        "group": "intelsat",
        "lat": -0.02873699323172621,
        "lon": -38.64060618061616,
        "alt_km": 35784.247449226816,
        "timestamp": "2025-12-21T18:54:58.161137+00:00",
        "meta_object_name": "INTELSAT 23 (IS-23)",
        "meta_object_id": "2012-057A",
        "meta_epoch": "2025-12-21T11:13:59.042208",
        "meta_mean_motion": 1.00269242,
        "meta_eccentricity": 6.585e-05,
        "meta_inclination": 0.0169,
        "meta_ra_of_asc_node": 64.9752,
        "meta_arg_of_pericenter": 235.2005,
        "meta_mean_anomaly": 265.6301,
        "meta_ephemeris_type": 0,
        "meta_classification_type": "U",
        "meta_norad_cat_id": 38867,
        "meta_element_set_no": 999,
        "meta_rev_at_epoch": 4817,
        "meta_bstar": 0,
        "meta_mean_motion_dot": -2.62e-06,
        "meta_mean_motion_ddot": 0,
        "tle_line1": "1 38867U 12057A   25355.46804447 -.00000262  00000+0  00000+0 0  9993",
        "tle_line2": "2 38867   0.0169  64.9752 0000658 235.2005 265.6301  1.00269242 48178"
      },
      "geometry": {
        "type": "Point",
        "coordinates": [
          -38.64060618061616,
          -0.02873699323172621
        ]
      }
    },
    {
      "type": "Feature",
      "properties": {
        "norad_id": 39360,
        "name": "FM-6",
        "group": "intelsat",
        "lat": -0.017491487382329824,
        "lon": -101.7832794648105,
        "alt_km": 35782.96080986074,
        "timestamp": "2025-12-21T18:54:58.161148+00:00",
        "meta_object_name": "FM-6",
        "meta_object_id": "2013-058A",
        "meta_epoch": "2025-12-21T10:49:59.562048",
        "meta_mean_motion": 1.00273303,
        "meta_eccentricity": 0.00030477,
        "meta_inclination": 0.0117,
        "meta_ra_of_asc_node": 65.8213,
        "meta_arg_of_pericenter": 114.5077,
        "meta_mean_anomaly": 316.2838,
        "meta_ephemeris_type": 0,
        "meta_classification_type": "U",
        "meta_norad_cat_id": 39360,
        "meta_element_set_no": 999,
        "meta_rev_at_epoch": 4429,
        "meta_bstar": 0,
        "meta_mean_motion_dot": 5e-08,
        "meta_mean_motion_ddot": 0,
        "tle_line1": "1 39360U 13058A   25355.45138382  .00000005  00000+0  00000+0 0  9995",
        "tle_line2": "2 39360   0.0117  65.8213 0003047 114.5077 316.2838  1.00273303 44295"
      },
      "geometry": {
        "type": "Point",
        "coordinates": [
          -101.7832794648105,
          -0.017491487382329824
        ]
      }
    },
    {
      "type": "Feature",
      "properties": {
        "norad_id": 40271,
        "name": "INTELSAT 30 (IS-30)",
        "group": "intelsat",
        "lat": -0.040896362157181,
        "lon": -80.71455504916572,
        "alt_km": 35793.02320141665,
        "timestamp": "2025-12-21T18:54:58.161160+00:00",
        "meta_object_name": "INTELSAT 30 (IS-30)",
        "meta_object_id": "2014-062A",
        "meta_epoch": "2025-12-21T02:28:25.779360",
        "meta_mean_motion": 1.00271873,
        "meta_eccentricity": 0.00016539,
        "meta_inclination": 0.0153,
        "meta_ra_of_asc_node": 22.7027,
        "meta_arg_of_pericenter": 68.3073,
        "meta_mean_anomaly": 300.9758,
        "meta_ephemeris_type": 0,
        "meta_classification_type": "U",
        "meta_norad_cat_id": 40271,
        "meta_element_set_no": 999,
        "meta_rev_at_epoch": 500,
        "meta_bstar": 0,
        "meta_mean_motion_dot": -1.28e-06,
        "meta_mean_motion_ddot": 0,
        "tle_line1": "1 40271U 14062A   25355.10307615 -.00000128  00000+0  00000+0 0  9990",
        "tle_line2": "2 40271   0.0153  22.7027 0001653  68.3073 300.9758  1.00271873  5003"
      },
      "geometry": {
        "type": "Point",
        "coordinates": [
          -80.71455504916572,
          -0.040896362157181
        ]
      }
    },
    {
      "type": "Feature",
      "properties": {
        "norad_id": 40333,
        "name": "DIRECTV 14",
        "group": "intelsat",
        "lat": -0.027580618949340035,
        "lon": -84.88219220223046,
        "alt_km": 35787.39545033497,
        "timestamp": "2025-12-21T18:54:58.161172+00:00",
        "meta_object_name": "DIRECTV 14",
        "meta_object_id": "2014-078B",
        "meta_epoch": "2025-12-21T11:54:52.391808",
        "meta_mean_motion": 1.00270511,
        "meta_eccentricity": 2.604e-05,
        "meta_inclination": 0.0008,
        "meta_ra_of_asc_node": 6.7961,
        "meta_arg_of_pericenter": 119.3735,
        "meta_mean_anomaly": 43.6445,
        "meta_ephemeris_type": 0,
        "meta_classification_type": "U",
        "meta_norad_cat_id": 40333,
        "meta_element_set_no": 999,
        "meta_rev_at_epoch": 4026,
        "meta_bstar": 0,
        "meta_mean_motion_dot": -1.03e-06,
        "meta_mean_motion_ddot": 0,
        "tle_line1": "1 40333U 14078B   25355.49643972 -.00000103  00000+0  00000+0 0  9990",
        "tle_line2": "2 40333   0.0008   6.7961 0000260 119.3735  43.6445  1.00270511 40264"
      },
      "geometry": {
        "type": "Point",
        "coordinates": [
          -84.88219220223046,
          -0.027580618949340035
        ]
      }
    },
    {
      "type": "Feature",
      "properties": {
        "norad_id": 40663,
        "name": "DIRECTV 15",
        "group": "intelsat",
        "lat": -0.04959771500463119,
        "lon": -88.54293110201327,
        "alt_km": 35787.6236972459,
        "timestamp": "2025-12-21T18:54:58.161183+00:00",
        "meta_object_name": "DIRECTV 15",
        "meta_object_id": "2015-026A",
        "meta_epoch": "2025-12-21T08:19:00.875424",
        "meta_mean_motion": 1.00269643,
        "meta_eccentricity": 3.298e-05,
        "meta_inclination": 0.0248,
        "meta_ra_of_asc_node": 19.5507,
        "meta_arg_of_pericenter": 120.1507,
        "meta_mean_anomaly": 332.3403,
        "meta_ephemeris_type": 0,
        "meta_classification_type": "U",
        "meta_norad_cat_id": 40663,
        "meta_element_set_no": 999,
        "meta_rev_at_epoch": 3868,
        "meta_bstar": 0,
        "meta_mean_motion_dot": 0,
        "meta_mean_motion_ddot": 0,
        "tle_line1": "1 40663U 15026A   25355.34653791  .00000000  00000+0  00000+0 0  9999",
        "tle_line2": "2 40663   0.0248  19.5507 0000329 120.1507 332.3403  1.00269643 38686"
      },
      "geometry": {
        "type": "Point",
        "coordinates": [
          -88.54293110201327,
          -0.04959771500463119
        ]
      }
    },
    {
      "type": "Feature",
      "properties": {
        "norad_id": 40664,
        "name": "SKY MEXICO-1",
        "group": "intelsat",
        "lat": -0.03661637309556072,
        "lon": -64.41907872848064,
        "alt_km": 35776.305389250236,
        "timestamp": "2025-12-21T18:54:58.161194+00:00",
        "meta_object_name": "SKY MEXICO-1",
        "meta_object_id": "2015-026B",
        "meta_epoch": "2025-12-21T13:01:36.890112",
        "meta_mean_motion": 1.00271501,
        "meta_eccentricity": 0.00023614,
        "meta_inclination": 0.015,
        "meta_ra_of_asc_node": 354.63,
        "meta_arg_of_pericenter": 292.4188,
        "meta_mean_anomaly": 279.956,
        "meta_ephemeris_type": 0,
        "meta_classification_type": "U",
        "meta_norad_cat_id": 40664,
        "meta_element_set_no": 999,
        "meta_rev_at_epoch": 3867,
        "meta_bstar": 0,
        "meta_mean_motion_dot": -2.12e-06,
        "meta_mean_motion_ddot": 0,
        "tle_line1": "1 40664U 15026B   25355.54278808 -.00000212  00000+0  00000+0 0  9990",
        "tle_line2": "2 40664   0.0150 354.6300 0002361 292.4188 279.9560  1.00271501 38674"
      },
      "geometry": {
        "type": "Point",
        "coordinates": [
          -64.41907872848064,
          -0.03661637309556072
        ]
      }
    },
    {
      "type": "Feature",
      "properties": {
        "norad_id": 40874,
        "name": "INTELSAT 34 (IS-34)",
        "group": "intelsat",
        "lat": -0.01177220258777047,
        "lon": -41.16253306709359,
        "alt_km": 35788.79814721205,
        "timestamp": "2025-12-21T18:54:58.161205+00:00",
        "meta_object_name": "INTELSAT 34 (IS-34)",
        "meta_object_id": "2015-039A",
        "meta_epoch": "2025-12-21T04:31:38.456256",
        "meta_mean_motion": 1.00270737,
        "meta_eccentricity": 5.67e-05,
        "meta_inclination": 0.0114,
        "meta_ra_of_asc_node": 322.9713,
        "meta_arg_of_pericenter": 185.716,
        "meta_mean_anomaly": 313.7366,
        "meta_ephemeris_type": 0,
        "meta_classification_type": "U",
        "meta_norad_cat_id": 40874,
        "meta_element_set_no": 999,
        "meta_rev_at_epoch": 3784,
        "meta_bstar": 0,
        "meta_mean_motion_dot": -2.62e-06,
        "meta_mean_motion_ddot": 0,
        "tle_line1": "1 40874U 15039A   25355.18863954 -.00000262  00000+0  00000+0 0  9994",
        "tle_line2": "2 40874   0.0114 322.9713 0000567 185.7160 313.7366  1.00270737 37842"
      },
      "geometry": {
        "type": "Point",
        "coordinates": [
          -41.16253306709359,
          -0.01177220258777047
        ]
      }
    }
  ]
}